{
  "norad_id": 58720,
  "name": "STARLINK-31027",
  "history": [
    {
      "epoch": "2026-03-28T20:00:01.999872Z",
      "apogee_km": 416.59796164585805,
      "perigee_km": 398.6962488820791,
      "latitude_deg": -36.67454195287753,
      "longitude_deg": -25.098737971674296,
      "height_km": 415.5939175209313,
      "semi_major_axis_km": 6785.784105263969,
      "eccentricity": 0.00131906,
      "inclination_deg": 53.1502,
      "raan_deg": 134.8682,
      "arg_perigee_deg": 16.6034,
      "mean_anomaly_deg": 295.57,
      "mean_motion_rev_day": 15.53111748
    },
    {
      "epoch": "2026-03-29T04:00:01.999584Z",
      "apogee_km": 416.06619212720943,
      "perigee_km": 398.34965652978826,
      "latitude_deg": 13.562301123810954,
      "longitude_deg": -102.96349536027726,
      "height_km": 398.50766651330173,
      "semi_major_axis_km": 6785.344924328499,
      "eccentricity": 0.0013055,
      "inclination_deg": 53.1502,
      "raan_deg": 133.2646,
      "arg_perigee_deg": 18.3861,
      "mean_anomaly_deg": 358.6523,
      "mean_motion_rev_day": 15.53262538
    },
    {
      "epoch": "2026-03-30T04:00:01.999584Z",
      "apogee_km": 414.63321533815633,
      "perigee_km": 397.0114739029432,
      "latitude_deg": -25.835253866071714,
      "longitude_deg": 82.0343770939768,
      "height_km": 422.05974521698573,
      "semi_major_axis_km": 6783.95934462055,
      "eccentricity": 0.00129878,
      "inclination_deg": 53.1497,
      "raan_deg": 128.4523,
      "arg_perigee_deg": 22.1548,
      "mean_anomaly_deg": 190.6005,
      "mean_motion_rev_day": 15.53738428
    },
    {
      "epoch": "2026-03-30T12:00:02.000160Z",
      "apogee_km": 414.4227247170593,
      "perigee_km": 396.38854095680836,
      "latitude_deg": -52.522299074695184,
      "longitude_deg": 42.521911748554125,
      "height_km": 425.94937319751625,
      "semi_major_axis_km": 6783.542632836933,
      "eccentricity": 0.00132926,
      "inclination_deg": 53.1496,
      "raan_deg": 126.8492,
      "arg_perigee_deg": 23.217,
      "mean_anomaly_deg": 255.1876,
      "mean_motion_rev_day": 15.53881599
    },
    {
      "epoch": "2026-03-30T22:00:00.999936Z",
      "apogee_km": 413.5573693382912,
      "perigee_km": 395.90238080650215,
      "latitude_deg": 53.29523651624075,
      "longitude_deg": 57.92530418866116,
      "height_km": 407.61982393549664,
      "semi_major_axis_km": 6782.866875072396,
      "eccentricity": 0.00130144,
      "inclination_deg": 53.1496,
      "raan_deg": 124.8403,
      "arg_perigee_deg": 25.3143,
      "mean_anomaly_deg": 65.3832,
      "mean_motion_rev_day": 15.54113818
    },
    {
      "epoch": "2026-03-31T20:00:01.999008Z",
      "apogee_km": 412.1252903378463,
      "perigee_km": 394.43799423503515,
      "latitude_deg": -2.6522317170219556,
      "longitude_deg": 173.18793610294804,
      "height_km": 412.5163586883662,
      "semi_major_axis_km": 6781.41864228644,
      "eccentricity": 0.0013041,
      "inclination_deg": 53.1491,
      "raan_deg": 120.4228,
      "arg_perigee_deg": 29.224,
      "mean_anomaly_deg": 153.9041,
      "mean_motion_rev_day": 15.54611687
    },
    {
      "epoch": "2026-04-01T20:00:01.999008Z",
      "apogee_km": 410.5986452728348,
      "perigee_km": 392.91126314269695,
      "latitude_deg": 18.953673011844995,
      "longitude_deg": 0.23159019090481842,
      "height_km": 393.44203212997775,
      "semi_major_axis_km": 6779.891954207766,
      "eccentricity": 0.0013044,
      "inclination_deg": 53.148,
      "raan_deg": 115.6001,
      "arg_perigee_deg": 33.9792,
      "mean_anomaly_deg": 349.9473,
      "mean_motion_rev_day": 15.55136815
    }
  ]
}